STARLINK-30407          
1 57823U 23138R   26068.21271779 -.00006952  00000+0 -24312-3 0  9998
2 57823  42.9992 131.4786 0001145 265.6237  94.4484 15.27608519139891
GESAT GEN1              
1 62612U 25009D   26068.72662138  .00010041  00000+0  38326-3 0  9990
2 62612  97.4058 151.4598 0000888  98.3547 261.7793 15.26847505 63732
